{
  "type": "FeatureCollection",
  "features": [
    {
      "type": "Feature",
      "properties": {
        "norad_id": 37238,
        "name": "INTELSAT 17 (IS-17)",
        "group": "intelsat",
        "lat": -0.029154064404711365,
        "lon": -91.43714745735042,
        "alt_km": 35775.16011376558,
        "timestamp": "2025-12-20T07:33:50.471511+00:00",
        "meta_object_name": "INTELSAT 17 (IS-17)",
        "meta_object_id": "2010-065B",
        "meta_epoch": "2025-12-19T20:34:55.871904",
        "meta_mean_motion": 1.00271342,
        "meta_eccentricity": 0.00027901,
        "meta_inclination": 0.0274,
        "meta_ra_of_asc_node": 66.7969,
        "meta_arg_of_pericenter": 222.8909,
        "meta_mean_anomaly": 173.7184,
        "meta_ephemeris_type": 0,
        "meta_classification_type": "U",
        "meta_norad_cat_id": 37238,
        "meta_element_set_no": 999,
        "meta_rev_at_epoch": 5145,
        "meta_bstar": 0,
        "meta_mean_motion_dot": 0,
        "meta_mean_motion_ddot": 0,
        "tle_line1": "1 37238U 10065B   25353.85759111  .00000000  00000+0  00000+0 0  9998",
        "tle_line2": "2 37238   0.0274  66.7969 0002790 222.8909 173.7184  1.00271342 51457"
      },
      "geometry": {
        "type": "Point",
        "coordinates": [
          -91.43714745735042,
          -0.029154064404711365
        ]
      }
    },
    {
      "type": "Feature",
      "properties": {
        "norad_id": 37392,
        "name": "INTELSAT 28 (IS-28)",
        "group": "intelsat",
        "lat": 1.342815192581952,
        "lon": 170.86709893496,
        "alt_km": 35789.53080208009,
        "timestamp": "2025-12-20T07:33:50.471524+00:00",
        "meta_object_name": "INTELSAT 28 (IS-28)",
        "meta_object_id": "2011-016A",
        "meta_epoch": "2025-12-19T18:14:53.276640",
        "meta_mean_motion": 1.00270135,
        "meta_eccentricity": 0.00036749,
        "meta_inclination": 1.3417,
        "meta_ra_of_asc_node": 84.9812,
        "meta_arg_of_pericenter": 187.4914,
        "meta_mean_anomaly": 58.1626,
        "meta_ephemeris_type": 0,
        "meta_classification_type": "U",
        "meta_norad_cat_id": 37392,
        "meta_element_set_no": 999,
        "meta_rev_at_epoch": 5148,
        "meta_bstar": 0,
        "meta_mean_motion_dot": -2.02e-06,
        "meta_mean_motion_ddot": 0,
        "tle_line1": "1 37392U 11016A   25353.76033885 -.00000202  00000+0  00000+0 0  9994",
        "tle_line2": "2 37392   1.3417  84.9812 0003674 187.4914  58.1626  1.00270135 51483"
      },
      "geometry": {
        "type": "Point",
        "coordinates": [
          170.86709893496,
          1.342815192581952
        ]
      }
    },
    {
      "type": "Feature",
      "properties": {
        "norad_id": 37834,
        "name": "INTELSAT 18 (IS-18)",
        "group": "intelsat",
        "lat": 0.03879354526693442,
        "lon": 22.619621477894206,
        "alt_km": 35786.77965667722,
        "timestamp": "2025-12-20T07:33:50.471536+00:00",
        "meta_object_name": "INTELSAT 18 (IS-18)",
        "meta_object_id": "2011-056A",
        "meta_epoch": "2025-12-19T19:15:17.492256",
        "meta_mean_motion": 1.0027221,
        "meta_eccentricity": 0.00016561,
        "meta_inclination": 0.0348,
        "meta_ra_of_asc_node": 279.4074,
        "meta_arg_of_pericenter": 6.336,
        "meta_mean_anomaly": 271.7233,
        "meta_ephemeris_type": 0,
        "meta_classification_type": "U",
        "meta_norad_cat_id": 37834,
        "meta_element_set_no": 999,
        "meta_rev_at_epoch": 5201,
        "meta_bstar": 0,
        "meta_mean_motion_dot": 7.7e-07,
        "meta_mean_motion_ddot": 0,
        "tle_line1": "1 37834U 11056A   25353.80228579  .00000077  00000+0  00000+0 0  9999",
        "tle_line2": "2 37834   0.0348 279.4074 0001656   6.3360 271.7233  1.00272210 52019"
      },
      "geometry": {
        "type": "Point",
        "coordinates": [
          22.619621477894206,
          0.03879354526693442
        ]
      }
    },
    {
      "type": "Feature",
      "properties": {
        "norad_id": 38098,
        "name": "INTELSAT 22 (IS-22)",
        "group": "intelsat",
        "lat": -0.030812588676316966,
        "lon": -85.30531525476805,
        "alt_km": 35778.77442798781,
        "timestamp": "2025-12-20T07:33:50.471549+00:00",
        "meta_object_name": "INTELSAT 22 (IS-22)",
        "meta_object_id": "2012-011A",
        "meta_epoch": "2025-12-19T19:48:56.096064",
        "meta_mean_motion": 1.00270554,
        "meta_eccentricity": 0.00018085,
        "meta_inclination": 0.0143,
        "meta_ra_of_asc_node": 46.6827,
        "meta_arg_of_pericenter": 231.0722,
        "meta_mean_anomaly": 180.2437,
        "meta_ephemeris_type": 0,
        "meta_classification_type": "U",
        "meta_norad_cat_id": 38098,
        "meta_element_set_no": 999,
        "meta_rev_at_epoch": 539,
        "meta_bstar": 0,
        "meta_mean_motion_dot": -3.4e-07,
        "meta_mean_motion_ddot": 0,
        "tle_line1": "1 38098U 12011A   25353.82564926 -.00000034  00000+0  00000+0 0  9999",
        "tle_line2": "2 38098   0.0143  46.6827 0001808 231.0722 180.2437  1.00270554  5391"
      },
      "geometry": {
        "type": "Point",
        "coordinates": [
          -85.30531525476805,
          -0.030812588676316966
        ]
      }
    },
    {
      "type": "Feature",
      "properties": {
        "norad_id": 38356,
        "name": "INTELSAT 19 (IS-19)",
        "group": "intelsat",
        "lat": 0.01023732466387751,
        "lon": 8.631854115638037,
        "alt_km": 35788.93735262158,
        "timestamp": "2025-12-20T07:33:50.471562+00:00",
        "meta_object_name": "INTELSAT 19 (IS-19)",
        "meta_object_id": "2012-030A",
        "meta_epoch": "2025-12-19T17:28:37.237728",
        "meta_mean_motion": 1.00271271,
        "meta_eccentricity": 0.00027409,
        "meta_inclination": 0.0115,
        "meta_ra_of_asc_node": 352.2924,
        "meta_arg_of_pericenter": 272.7431,
        "meta_mean_anomaly": 251.6929,
        "meta_ephemeris_type": 0,
        "meta_classification_type": "U",
        "meta_norad_cat_id": 38356,
        "meta_element_set_no": 999,
        "meta_rev_at_epoch": 4865,
        "meta_bstar": 0,
        "meta_mean_motion_dot": -3.2e-07,
        "meta_mean_motion_ddot": 0,
        "tle_line1": "1 38356U 12030A   25353.72820877 -.00000032  00000+0  00000+0 0  9994",
        "tle_line2": "2 38356   0.0115 352.2924 0002740 272.7431 251.6929  1.00271271 48658"
      },
      "geometry": {
        "type": "Point",
        "coordinates": [
          8.631854115638037,
          0.01023732466387751
        ]
      }
    },
    {
      "type": "Feature",
      "properties": {
        "norad_id": 38740,
        "name": "INTELSAT 20 (IS-20)",
        "group": "intelsat",
        "lat": -0.020928136446292676,
        "lon": -88.86673346714522,
        "alt_km": 35786.27960762963,
        "timestamp": "2025-12-20T07:33:50.471574+00:00",
        "meta_object_name": "INTELSAT 20 (IS-20)",
        "meta_object_id": "2012-043A",
        "meta_epoch": "2025-12-19T20:26:10.703328",
        "meta_mean_motion": 1.00270024,
        "meta_eccentricity": 0.00027724,
        "meta_inclination": 0.0228,
        "meta_ra_of_asc_node": 81.7729,
        "meta_arg_of_pericenter": 100.6743,
        "meta_mean_anomaly": 281.2944,
        "meta_ephemeris_type": 0,
        "meta_classification_type": "U",
        "meta_norad_cat_id": 38740,
        "meta_element_set_no": 999,
        "meta_rev_at_epoch": 4895,
        "meta_bstar": 0,
        "meta_mean_motion_dot": 0,
        "meta_mean_motion_ddot": 0,
        "tle_line1": "1 38740U 12043A   25353.85151277  .00000000  00000+0  00000+0 0  9994",
        "tle_line2": "2 38740   0.0228  81.7729 0002772 100.6743 281.2944  1.00270024 48951"
      },
      "geometry": {
        "type": "Point",
        "coordinates": [
          -88.86673346714522,
          -0.020928136446292676
        ]
      }
    },
    {
      "type": "Feature",
      "properties": {
        "norad_id": 38749,
        "name": "INTELSAT 21 (IS-21)",
        "group": "intelsat",
        "lat": -0.005532425293601633,
        "lon": 144.58842359793636,
        "alt_km": 35788.476709474984,
        "timestamp": "2025-12-20T07:33:50.471585+00:00",
        "meta_object_name": "INTELSAT 21 (IS-21)",
        "meta_object_id": "2012-045A",
        "meta_epoch": "2025-12-19T11:16:36.486336",
        "meta_mean_motion": 1.00273688,
        "meta_eccentricity": 0.0001541,
        "meta_inclination": 0.0278,
        "meta_ra_of_asc_node": 286.5242,
        "meta_arg_of_pericenter": 333.6711,
        "meta_mean_anomaly": 299.2721,
        "meta_ephemeris_type": 0,
        "meta_classification_type": "U",
        "meta_norad_cat_id": 38749,
        "meta_element_set_no": 999,
        "meta_rev_at_epoch": 4872,
        "meta_bstar": 0,
        "meta_mean_motion_dot": -2.6e-06,
        "meta_mean_motion_ddot": 0,
        "tle_line1": "1 38749U 12045A   25353.46986674 -.00000260  00000+0  00000+0 0  9998",
        "tle_line2": "2 38749   0.0278 286.5242 0001541 333.6711 299.2721  1.00273688 48722"
      },
      "geometry": {
        "type": "Point",
        "coordinates": [
          144.58842359793636,
          -0.005532425293601633
        ]
      }
    }
  ]
}